XRISM                   
1 57800U 23137A   24177.47270031  .00005047  00000+0  37640-3 0  9999
2 57800  31.0041 319.8709 0009565 291.3676  68.5939 15.01308976 43936
